STARLINK-1296           
1 45412U 20019BE  26068.56394030 -.00000014  00000+0  11663-4 0  9996
2 45412  53.1594 129.8314 0001519  88.1784 271.9390 15.30190046329953
HERMES-3                
1 63835U 25052BR  26068.93751242  .00020316  00000+0  69958-3 0  9995
2 63835  97.3987 324.6131 0007993 112.9583 247.2502 15.30039785 54863
